[{"OBJECT_NAME":"STARLINK-34473","OBJECT_ID":"2025-126L","EPOCH":"2026-03-09T07:08:55.697568","MEAN_MOTION":14.98332341,"ECCENTRICITY":0.00028351,"INCLINATION":70.0032,"RA_OF_ASC_NODE":35.4295,"ARG_OF_PERICENTER":269.1154,"MEAN_ANOMALY":90.968,"EPHEMERIS_TYPE":0,"CLASSIFICATION_TYPE":"U","NORAD_CAT_ID":64354,"ELEMENT_SET_NO":999,"REV_AT_EPOCH":4062,"BSTAR":0.00016105214,"MEAN_MOTION_DOT":1.829e-5,"MEAN_MOTION_DDOT":0},{"OBJECT_NAME":"NOAA 16 DEB","OBJECT_ID":"2000-055NX","EPOCH":"2026-03-08T23:11:13.556832","MEAN_MOTION":15.01016664,"ECCENTRICITY":0.00157984,"INCLINATION":98.8636,"RA_OF_ASC_NODE":259.6913,"ARG_OF_PERICENTER":295.8562,"MEAN_ANOMALY":64.1029,"EPHEMERIS_TYPE":0,"CLASSIFICATION_TYPE":"U","NORAD_CAT_ID":41658,"ELEMENT_SET_NO":999,"REV_AT_EPOCH":9741,"BSTAR":0.010110988,"MEAN_MOTION_DOT":0.00131742,"MEAN_MOTION_DDOT":0}]
